{
  "status": 0,
  "msg": "ok",
  "result": [
    {
      "id": 499,
      "name": "东城区",
      "parentid": 1,
      "parentname": "北京",
      "areacode": "010",
      "zipcode": "100000",
      "depth": 2
    },
    {
      "id": 500,
      "name": "西城区",
      "parentid": 1,
      "parentname": "北京",
      "areacode": "010",
      "zipcode": "100000",
      "depth": 2
    },
    {
      "id": 501,
      "name": "海淀区",
      "parentid": 1,
      "parentname": "北京",
      "areacode": "010",
      "zipcode": "100000",
      "depth": 2
    },
    {
      "id": 502,
      "name": "朝阳区",
      "parentid": 1,
      "parentname": "北京",
      "areacode": "010",
      "zipcode": "100000",
      "depth": 2
    },
    {
      "id": 505,
      "name": "丰台区",
      "parentid": 1,
      "parentname": "北京",
      "areacode": "010",
      "zipcode": "100000",
      "depth": 2
    },
    {
      "id": 506,
      "name": "石景山区",
      "parentid": 1,
      "parentname": "北京",
      "areacode": "010",
      "zipcode": "100000",
      "depth": 2
    },
    {
      "id": 507,
      "name": "房山区",
      "parentid": 1,
      "parentname": "北京",
      "areacode": "010",
      "zipcode": "102400",
      "depth": 2
    },
    {
      "id": 508,
      "name": "门头沟区",
      "parentid": 1,
      "parentname": "北京",
      "areacode": "010",
      "zipcode": "102300",
      "depth": 2
    },
    {
      "id": 509,
      "name": "通州区",
      "parentid": 1,
      "parentname": "北京",
      "areacode": "010",
      "zipcode": "101100",
      "depth": 2
    },
    {
      "id": 510,
      "name": "顺义区",
      "parentid": 1,
      "parentname": "北京",
      "areacode": "010",
      "zipcode": "101300",
      "depth": 2
    },
    {
      "id": 511,
      "name": "昌平区",
      "parentid": 1,
      "parentname": "北京",
      "areacode": "010",
      "zipcode": "102200",
      "depth": 2
    },
    {
      "id": 512,
      "name": "怀柔区",
      "parentid": 1,
      "parentname": "北京",
      "areacode": "010",
      "zipcode": "101400",
      "depth": 2
    },
    {
      "id": 513,
      "name": "平谷区",
      "parentid": 1,
      "parentname": "北京",
      "areacode": "010",
      "zipcode": "101200",
      "depth": 2
    },
    {
      "id": 514,
      "name": "大兴区",
      "parentid": 1,
      "parentname": "北京",
      "areacode": "010",
      "zipcode": "102600",
      "depth": 2
    },
    {
      "id": 515,
      "name": "密云县",
      "parentid": 1,
      "parentname": "北京",
      "areacode": "010",
      "zipcode": "101500",
      "depth": 2
    },
    {
      "id": 516,
      "name": "延庆县",
      "parentid": 1,
      "parentname": "北京",
      "areacode": "010",
      "zipcode": "102100",
      "depth": 2
    }
  ]
}