{
  "status":0,
  "msg":"ok",
  "result": [
    {
      "id": 37,
      "name": "巢湖市",
      "parentid": 51,
      "parentname": "合肥",
      "areacode": "0565",
      "zipcode": "238000",
      "depth": 3
    },
    {
      "id": 416,
      "name": "庐江县",
      "parentid": 51,
      "parentname": "合肥",
      "areacode": "0565",
      "zipcode": "231500",
      "depth": 3
    },
    {
      "id": 3401,
      "name": "庐阳区",
      "parentid": 51,
      "parentname": "合肥",
      "areacode": "0551",
      "zipcode": "230000",
      "depth": 3
    },
    {
      "id": 3402,
      "name": "瑶海区",
      "parentid": 51,
      "parentname": "合肥",
      "areacode": "0551",
      "zipcode": "230000",
      "depth": 3
    },
    {
      "id": 3403,
      "name": "蜀山区",
      "parentid": 51,
      "parentname": "合肥",
      "areacode": "0551",
      "zipcode": "230000",
      "depth": 3
    },
    {
      "id": 3404,
      "name": "包河区",
      "parentid": 51,
      "parentname": "合肥",
      "areacode": "0551",
      "zipcode": "230000",
      "depth": 3
    },
    {
      "id": 3405,
      "name": "长丰县",
      "parentid": 51,
      "parentname": "合肥",
      "areacode": "0551",
      "zipcode": "231100",
      "depth": 3
    },
    {
      "id": 3406,
      "name": "肥东县",
      "parentid": 51,
      "parentname": "合肥",
      "areacode": "0551",
      "zipcode": "230000",
      "depth": 3
    },
    {
      "id": 3407,
      "name": "肥西县",
      "parentid": 51,
      "parentname": "合肥",
      "areacode": "0551",
      "zipcode": "231200",
      "depth": 3
    }
  ]}