{
  "status": 0,
  "msg": "ok",
  "result": [
    {
      "id": 2721,
      "name": "青羊区",
      "parentid": 321,
      "parentname": "成都",
      "areacode": "028",
      "zipcode": "610000",
      "depth": 3
    },
    {
      "id": 2722,
      "name": "锦江区",
      "parentid": 321,
      "parentname": "成都",
      "areacode": "028",
      "zipcode": "610000",
      "depth": 3
    },
    {
      "id": 2723,
      "name": "金牛区",
      "parentid": 321,
      "parentname": "成都",
      "areacode": "028",
      "zipcode": "610000",
      "depth": 3
    },
    {
      "id": 2724,
      "name": "武侯区",
      "parentid": 321,
      "parentname": "成都",
      "areacode": "028",
      "zipcode": "610000",
      "depth": 3
    },
    {
      "id": 2725,
      "name": "成华区",
      "parentid": 321,
      "parentname": "成都",
      "areacode": "028",
      "zipcode": "610000",
      "depth": 3
    },
    {
      "id": 2726,
      "name": "龙泉驿区",
      "parentid": 321,
      "parentname": "成都",
      "areacode": "028",
      "zipcode": "610100",
      "depth": 3
    },
    {
      "id": 2727,
      "name": "青白江区",
      "parentid": 321,
      "parentname": "成都",
      "areacode": "028",
      "zipcode": "610300",
      "depth": 3
    },
    {
      "id": 2728,
      "name": "新都区",
      "parentid": 321,
      "parentname": "成都",
      "areacode": "028",
      "zipcode": "610500",
      "depth": 3
    },
    {
      "id": 2729,
      "name": "温江区",
      "parentid": 321,
      "parentname": "成都",
      "areacode": "028",
      "zipcode": "611100",
      "depth": 3
    },
    {
      "id": 2730,
      "name": "高新区",
      "parentid": 321,
      "parentname": "成都",
      "areacode": "028",
      "zipcode": "610000",
      "depth": 3
    },
    {
      "id": 2731,
      "name": "高新西区",
      "parentid": 321,
      "parentname": "成都",
      "areacode": "028",
      "zipcode": "610000",
      "depth": 3
    },
    {
      "id": 2732,
      "name": "都江堰市",
      "parentid": 321,
      "parentname": "成都",
      "areacode": "028",
      "zipcode": "611800",
      "depth": 3
    },
    {
      "id": 2733,
      "name": "彭州市",
      "parentid": 321,
      "parentname": "成都",
      "areacode": "028",
      "zipcode": "611900",
      "depth": 3
    },
    {
      "id": 2734,
      "name": "邛崃市",
      "parentid": 321,
      "parentname": "成都",
      "areacode": "028",
      "zipcode": "611500",
      "depth": 3
    },
    {
      "id": 2735,
      "name": "崇州市",
      "parentid": 321,
      "parentname": "成都",
      "areacode": "028",
      "zipcode": "611200",
      "depth": 3
    },
    {
      "id": 2736,
      "name": "金堂县",
      "parentid": 321,
      "parentname": "成都",
      "areacode": "028",
      "zipcode": "610400",
      "depth": 3
    },
    {
      "id": 2737,
      "name": "双流县",
      "parentid": 321,
      "parentname": "成都",
      "areacode": "028",
      "zipcode": "610200",
      "depth": 3
    },
    {
      "id": 2738,
      "name": "郫县",
      "parentid": 321,
      "parentname": "成都",
      "areacode": "028",
      "zipcode": "611700",
      "depth": 3
    },
    {
      "id": 2739,
      "name": "大邑县",
      "parentid": 321,
      "parentname": "成都",
      "areacode": "028",
      "zipcode": "611300",
      "depth": 3
    },
    {
      "id": 2740,
      "name": "蒲江县",
      "parentid": 321,
      "parentname": "成都",
      "areacode": "028",
      "zipcode": "611600",
      "depth": 3
    },
    {
      "id": 2741,
      "name": "新津县",
      "parentid": 321,
      "parentname": "成都",
      "areacode": "028",
      "zipcode": "611400",
      "depth": 3
    },
    {
      "id": 2895,
      "name": "简阳市",
      "parentid": 321,
      "parentname": "成都",
      "areacode": "028",
      "zipcode": "641400",
      "depth": 3
    }
  ]
}